NORAD_CAT_ID,OBJECT_NAME,OBJECT_TYPE,EPOCH,MEAN_MOTION,ECCENTRICITY,INCLINATION,RA_OF_ASC_NODE,ARG_OF_PERICENTER,MEAN_ANOMALY,BSTAR,MEAN_MOTION_DOT,MEAN_MOTION_DDOT,TLE_LINE0,TLE_LINE1,TLE_LINE2,SEMIMAJOR_AXIS,PERIOD,APOGEE,PERIGEE,DECAYED
51982.0,STARLINK-3650,PAYLOAD,2023-10-16 05:37:31,15.08847007,0.0001783,53.2177,9.194,99.1051,261.0142,0.0024336,0.00038663,0.0,0 STARLINK-3650,1 51982U 22025AC  23289.23438922  .00038663  00000-0  24336-2 0  9999,2 51982  53.2177   9.1940 0001783  99.1051 261.0142 15.08847007 89990,6917.859,95.437,540.957,538.491,0.0
51982.0,STARLINK-3650,PAYLOAD,2023-10-16 11:59:03,15.08859576,0.0001658,53.2179,8.0044,93.3605,266.7577,0.001491,0.00023534,0.0,0 STARLINK-3650,1 51982U 22025AC  23289.49934506  .00023534  00000-0  14910-2 0  9994,2 51982  53.2179   8.0044 0001658  93.3605 266.7577 15.08859576 88938,6917.821,95.436,540.833,538.539,0.0
51982.0,STARLINK-3650,PAYLOAD,2023-10-17 10:14:27,15.0885608,0.0001495,53.2175,3.8394,93.4697,266.6466,0.00067066,0.00010406,0.0,0 STARLINK-3650,1 51982U 22025AC  23290.42670253  .00010406  00000-0  67066-3 0  9990,2 51982  53.2175   3.8394 0001495  93.4697 266.6466 15.08856080 90178,6917.831,95.437,540.73,538.662,0.0
51982.0,STARLINK-3650,PAYLOAD,2023-10-17 11:49:50,15.08853873,0.0001534,53.2182,3.5435,77.7253,282.3911,0.00058957,9.111e-05,0.0,0 STARLINK-3650,1 51982U 22025AC  23290.49294315  .00009111  00000-0  58957-3 0  9998,2 51982  53.2182   3.5435 0001534  77.7253 282.3911 15.08853873 89081,6917.838,95.437,540.764,538.642,0.0
51982.0,STARLINK-3650,PAYLOAD,2023-10-18 11:40:37,15.08853669,0.0001639,53.2185,359.0838,74.7108,285.4065,0.0010366,0.00016254,0.0,0 STARLINK-3650,1 51982U 22025AC  23291.48654343  .00016254  00000-0  10366-2 0  9996,2 51982  53.2185 359.0838 0001639  74.7108 285.4065 15.08853669 90339,6917.839,95.437,540.837,538.57,0.0
51982.0,STARLINK-3650,PAYLOAD,2023-10-18 21:12:55,15.08857262,0.0001424,53.2178,357.2999,77.8846,282.2306,0.0007105,0.00011043,0.0,0 STARLINK-3650,1 51982U 22025AC  23291.88398052  .00011043  00000-0  71050-3 0  9991,2 51982  53.2178 357.2999 0001424  77.8846 282.2306 15.08857262 89293,6917.828,95.436,540.678,538.708,0.0
51982.0,STARLINK-3650,PAYLOAD,2023-10-19 09:56:00,15.08854577,0.0001716,53.2185,354.92,90.1006,270.0183,0.00050752,7.802e-05,0.0,0 STARLINK-3650,1 51982U 22025AC  23292.41389776  .00007802  00000-0  50752-3 0  9998,2 51982  53.2185 354.9200 0001716  90.1006 270.0183 15.08854577 90476,6917.836,95.437,540.888,538.514,0.0
51982.0,STARLINK-3650,PAYLOAD,2023-10-19 13:06:46,15.08867074,0.0001755,53.2192,354.3261,88.552,271.5673,0.0011822,0.00018591,0.0,0 STARLINK-3650,1 51982U 22025AC  23292.54637568  .00018591  00000-0  11822-2 0  9998,2 51982  53.2192 354.3261 0001755  88.5520 271.5673 15.08867074 89395,6917.798,95.436,540.877,538.449,0.0
51982.0,STARLINK-3650,PAYLOAD,2023-10-19 21:03:43,15.08847267,0.0002588,53.2184,352.8383,77.1941,282.934,0.00041429,6.313e-05,0.0,0 STARLINK-3650,1 51982U 22025AC  23292.87758152  .00006313  00000-0  41429-3 0  9993,2 51982  53.2184 352.8383 0002588  77.1941 282.9340 15.08847267 89445,6917.858,95.437,541.514,537.933,0.0
51982.0,STARLINK-3650,PAYLOAD,2023-10-20 11:22:11,15.08828927,0.0001515,53.2179,350.1645,83.6186,276.4979,-8.914e-05,-1.706e-05,0.0,0 STARLINK-3650,1 51982U 22025AC  23293.47374566 -.00001706  00000-0 -89140-4 0  9999,2 51982  53.2179 350.1645 0001515  83.6186 276.4979 15.08828927 90634,6917.914,95.438,540.827,538.731,0.0
51982.0,STARLINK-3650,PAYLOAD,2023-10-20 12:57:34,15.08832512,0.000158,53.2182,349.8673,85.0929,275.0243,7.1362e-05,8.48e-06,0.0,0 STARLINK-3650,1 51982U 22025AC  23293.53998583  .00000848  00000-0  71362-4 0  9998,2 51982  53.2182 349.8673 0001580  85.0929 275.0243 15.08832512 89549,6917.903,95.438,540.861,538.675,0.0
51982.0,STARLINK-3650,PAYLOAD,2023-10-20 14:32:58,15.08828121,0.0001497,53.2171,349.5671,73.4259,286.6897,0.00049828,7.648e-05,0.0,0 STARLINK-3650,1 51982U 22025AC  23293.60622693  .00007648  00000-0  49828-3 0  9998,2 51982  53.2171 349.5671 0001497  73.4259 286.6897 15.08828121 89551,6917.917,95.438,540.817,538.746,0.0
51982.0,STARLINK-3650,PAYLOAD,2023-10-21 11:12:59,15.08845489,0.0001826,53.2184,345.6999,68.05,292.0686,0.00082766,0.00012911,0.0,0 STARLINK-3650,1 51982U 22025AC  23294.46735167  .00012911  00000-0  82766-3 0  9991,2 51982  53.2184 345.6999 0001826  68.0500 292.0686 15.08845489 90780,6917.864,95.437,540.992,538.465,0.0
51982.0,STARLINK-3650,PAYLOAD,2023-10-21 20:45:17,15.08848054,0.0001764,53.2175,343.919,79.7377,280.3814,0.0005833,9.009e-05,0.0,0 STARLINK-3650,1 51982U 22025AC  23294.86479017  .00009009  00000-0  58330-3 0  9998,2 51982  53.2175 343.9190 0001764  79.7377 280.3814 15.08848054 89744,6917.856,95.437,540.941,538.5,0.0
51982.0,STARLINK-3650,PAYLOAD,2023-10-22 09:28:22,15.08844641,0.0001397,53.2183,341.5368,96.4632,263.652,0.00026511,3.934e-05,0.0,0 STARLINK-3650,1 51982U 22025AC  23295.39470746  .00003934  00000-0  26511-3 0  9994,2 51982  53.2183 341.5368 0001397  96.4632 263.6520 15.08844641 90924,6917.866,95.437,540.698,538.765,0.0
51982.0,STARLINK-3650,PAYLOAD,2023-10-22 20:36:04,15.08848554,0.0001338,53.2158,339.4579,86.9783,273.1363,0.00032256,4.851e-05,0.0,0 STARLINK-3650,1 51982U 22025AC  23295.85838625  .00004851  00000-0  32256-3 0  9991,2 51982  53.2158 339.4579 0001338  86.9783 273.1363 15.08848554 89894,6917.854,95.437,540.645,538.794,0.0
51982.0,STARLINK-3650,PAYLOAD,2023-10-23 09:19:09,15.08838119,0.0001535,53.2169,337.0773,100.188,259.9286,-3.6715e-06,-3.46e-06,0.0,0 STARLINK-3650,1 51982U 22025AC  23296.38830968 -.00000346  00000-0 -36715-5 0  9995,2 51982  53.2169 337.0773 0001535 100.1880 259.9286 15.08838119 91077,6917.886,95.438,540.813,538.689,0.0
51982.0,STARLINK-3650,PAYLOAD,2023-10-23 20:26:52,15.08836343,0.0001687,53.2174,334.9941,104.2035,255.9145,2.3481e-05,8.6e-07,0.0,0 STARLINK-3650,1 51982U 22025AC  23296.85199248  .00000086  00000-0  23481-4 0  9990,2 51982  53.2174 334.9941 0001687 104.2035 255.9145 15.08836343 90044,6917.892,95.438,540.924,538.59,0.0
51982.0,STARLINK-3650,PAYLOAD,2023-10-24 09:09:57,15.0883884,0.0001449,53.2184,332.6178,90.3634,269.7524,8.8056e-05,1.114e-05,0.0,0 STARLINK-3650,1 51982U 22025AC  23297.38191334  .00001114  00000-0  88056-4 0  9999,2 51982  53.2184 332.6178 0001449  90.3634 269.7524 15.08838840 90125,6917.884,95.438,540.751,538.747,0.0
51982.0,STARLINK-3650,PAYLOAD,2023-10-25 12:11:30,15.08846879,0.0001769,53.2181,327.562,92.2362,267.8833,0.00019209,2.771e-05,0.0,0 STARLINK-3650,1 51982U 22025AC  23298.50798726  .00002771  00000-0  19209-3 0  9995,2 51982  53.2181 327.5620 0001769  92.2362 267.8833 15.08846879 91394,6917.859,95.437,540.948,538.501,0.0
51982.0,STARLINK-3650,PAYLOAD,2023-10-26 02:29:58,15.08840701,0.0001866,53.218,324.8816,100.7501,259.3701,7.9317e-05,9.74e-06,0.0,0 STARLINK-3650,1 51982U 22025AC  23299.10415401  .00000974  00000-0  79317-4 0  9998,2 51982  53.2180 324.8816 0001866 100.7501 259.3701 15.08840701 91486,6917.878,95.438,541.034,538.452,0.0
51982.0,STARLINK-3650,PAYLOAD,2023-10-26 08:51:32,15.08810257,0.0001852,53.218,323.6922,96.1513,263.969,0.00060453,9.338e-05,0.0,0 STARLINK-3650,1 51982U 22025AC  23299.36912408  .00009338  00000-0  60453-3 0  9998,2 51982  53.2180 323.6922 0001852  96.1513 263.9690 15.08810257 91523,6917.971,95.439,541.118,538.555,0.0
51982.0,STARLINK-3650,PAYLOAD,2023-10-27 11:53:03,15.08854095,0.0001824,53.2174,318.6417,107.7532,252.3659,0.000149,2.085e-05,0.0,0 STARLINK-3650,1 51982U 22025AC  23300.49518110  .00002085  00000-0  14900-3 0  9995,2 51982  53.2174 318.6417 0001824 107.7532 252.3659 15.08854095 91691,6917.837,95.437,540.964,538.44,0.0
51982.0,STARLINK-3650,PAYLOAD,2023-10-28 10:08:28,15.08832496,0.0001826,53.2176,314.4735,78.583,281.5367,-5.9793e-05,-1.239e-05,0.0,0 STARLINK-3650,1 51982U 22025AC  23301.42255654 -.00001239  00000-0 -59793-4 0  9992,2 51982  53.2176 314.4735 0001826  78.5830 281.5367 15.08832496 91835,6917.903,95.438,541.032,538.505,0.0
51982.0,STARLINK-3650,PAYLOAD,2023-10-28 18:05:24,15.08837017,0.0001746,53.2174,312.9874,88.0335,272.0857,1.6762e-05,-2.1e-07,0.0,0 STARLINK-3650,1 51982U 22025AC  23301.75375500 -.00000021  00000-0  16762-4 0  9997,2 51982  53.2174 312.9874 0001746  88.0335 272.0857 15.08837017 90783,6917.89,95.438,540.962,538.547,0.0
51982.0,STARLINK-3650,PAYLOAD,2023-10-29 08:23:51,15.08857948,0.0001649,53.2171,310.3151,99.7616,260.3562,0.00026322,3.906e-05,0.0,0 STARLINK-3650,1 51982U 22025AC  23302.34990300  .00003906  00000-0  26322-3 0  9990,2 51982  53.2171 310.3151 0001649  99.7616 260.3562 15.08857948 91973,6917.826,95.436,540.831,538.55,0.0
51982.0,STARLINK-3650,PAYLOAD,2023-10-29 17:56:11,15.08843971,0.0001686,53.2176,308.531,100.222,259.8962,7.5102e-05,9.08e-06,0.0,0 STARLINK-3650,1 51982U 22025AC  23302.74734981  .00000908  00000-0  75102-4 0  9995,2 51982  53.2176 308.5310 0001686 100.2220 259.8962 15.08843971 92030,6917.868,95.437,540.9,538.567,0.0
51982.0,STARLINK-3650,PAYLOAD,2023-10-30 00:17:44,15.08836647,0.0001792,53.2169,307.3434,90.7511,269.3687,0.00018161,2.603e-05,0.0,0 STARLINK-3650,1 51982U 22025AC  23303.01231748  .00002603  00000-0  18161-3 0  9994,2 51982  53.2169 307.3434 0001792  90.7511 269.3687 15.08836647 92076,6917.891,95.438,540.995,538.516,0.0
51982.0,STARLINK-3650,PAYLOAD,2023-10-30 17:46:59,15.08835191,0.0001862,53.2165,304.0712,91.4217,268.6989,6.2969e-05,7.14e-06,0.0,0 STARLINK-3650,1 51982U 22025AC  23303.74096127  .00000714  00000-0  62969-4 0  9991,2 51982  53.2165 304.0712 0001862  91.4217 268.6989 15.08835191 91084,6917.895,95.438,541.048,538.472,0.0
51982.0,STARLINK-3650,PAYLOAD,2023-10-31 04:54:41,15.08836045,0.0001817,53.2174,301.9889,94.6915,265.4285,-4.9576e-06,-3.67e-06,0.0,0 STARLINK-3650,1 51982U 22025AC  23304.20464172 -.00000367  00000-0 -49576-5 0  9998,2 51982  53.2174 301.9889 0001817  94.6915 265.4285 15.08836045 92258,6917.892,95.438,541.014,538.5,0.0
